STARLINK-31291          
1 59096U 24041Y   25190.46149275  .00000119  00000+0  13827-4 0  9990
2 59096  42.9996 244.2641 0001022 274.3666  85.7069 15.27578078 77067
STARLINK-31312          
1 59152U 24044A   25190.14453767  .00006021  00000+0  22813-3 0  9997
2 59152  43.0007 351.7379 0001287 271.9893  88.0811 15.27579489 76893
STARLINK-31308          
1 59153U 24044B   25190.16848108  .00000240  00000+0  18244-4 0  9998
2 59153  43.0058 355.4696 0001547 268.5265  91.5410 15.27574219 76909
STARLINK-31270          
1 59154U 24044C   25190.31509516 -.00000680  00000+0 -15173-4 0  9991
2 59154  43.0040  41.5594 0001407 272.6851  87.3839 15.27582010 76381
STARLINK-31341          
1 59155U 24044D   25189.86419617 -.00000622  00000+0 -13959-4 0  9998
2 59155  43.0014  45.9290 0001088 254.2053 105.8678 15.25903914 76250
STARLINK-31338          
1 59156U 24044E   25190.32014233 -.00008972  00000+0 -33363-3 0  9993
2 59156  42.9937  43.3344 0001005  62.5525 297.5428 15.25902646 76037
STARLINK-31334          
1 59157U 24044F   25189.99059949 -.00000645  00000+0 -14833-4 0  9999
2 59157  42.9966  45.1571 0001123  77.5101 282.5876 15.25902229 76093
STARLINK-31297          
1 59158U 24044G   25190.05740902  .00002710  00000+0  10797-3 0  9992
2 59158  43.0040  43.0663 0001060 266.1928  93.8802 15.27574692 76331
STARLINK-31182          
1 59159U 24044H   25189.88937031 -.00001259  00000+0 -36239-4 0  9992
2 59159  43.0045  43.5305 0001177 274.3439  85.7278 15.27581600 76314
STARLINK-31327          
1 59160U 24044J   25189.86382638 -.00002669  00000+0 -87537-4 0  9992
2 59160  43.0034  44.1908 0001373 251.0736 108.9967 15.27569699 76306
STARLINK-31256          
1 59161U 24044K   25189.95861266  .00002893  00000+0  11469-3 0  9999
2 59161  43.0042  43.1881 0001171 273.2675  86.8043 15.27559250 76322
STARLINK-31272          
1 59162U 24044L   25190.28941693  .00010193  00000+0  38007-3 0  9990
2 59162  43.0048  41.3700 0000681 259.1846 100.8929 15.27523379 76320
STARLINK-31278          
1 59163U 24044M   25190.29325520 -.00000972  00000+0 -25790-4 0  9999
2 59163  43.0031  41.4003 0001221 275.7063  84.3649 15.27584386 76326
STARLINK-31309          
1 59164U 24044N   25189.97020322  .00002506  00000+0  10062-3 0  9993
2 59164  43.0044  43.2712 0001031 276.0580  84.0154 15.27555569 76335
STARLINK-31325          
1 59165U 24044P   25190.29968390 -.00002163  00000+0 -69130-4 0  9999
2 59165  43.0053  41.4437 0001029 264.9061  95.1674 15.27563394 76129
STARLINK-31342          
1 59166U 24044Q   25189.97660568  .00004509  00000+0  17318-3 0  9993
2 59166  43.0033  43.3179 0000698 256.3735 103.7039 15.27598035 76329
STARLINK-31298          
1 59167U 24044R   25190.30740446  .00000002  00000+0  96111-5 0  9991
2 59167  42.9954  41.5063 0001568  58.9303 301.1702 15.27572886 76110
STARLINK-31322          
1 59168U 24044S   25189.94077738 -.00000644  00000+0 -13893-4 0  9996
2 59168  42.9990  43.9052 0000767 273.9594  86.1170 15.27570439 76319
STARLINK-31329          
1 59169U 24044T   25189.86766473  .00000103  00000+0  13258-4 0  9992
2 59169  43.0022  44.2173 0001289 272.3563  87.7141 15.27582050 76277
STARLINK-31340          
1 59170U 24044U   25189.54064243 -.00000114  00000+0  53908-5 0  9995
2 59170  43.0041   6.2977 0000925 259.0490 101.0258 15.27575865 76687
STARLINK-31344          
1 59171U 24044V   25189.87152995  .00000045  00000+0  11148-4 0  9995
2 59171  43.0008  44.2452 0001179 271.0932  88.9784 15.27574822 76306
STARLINK-31348          
1 59172U 24044W   25189.77744941  .00007564  00000+0  28410-3 0  9995
2 59172  42.9997 357.6925 0001412 275.5514  84.5176 15.27581099 76809
STARLINK-31289          
1 59173U 24044X   25190.31124333  .00013969  00000+0  51541-3 0  9992
2 59173  43.0066  41.5276 0002206 266.9550  93.1049 15.27629323 76384
STARLINK-31283          
1 59174U 24044Y   25190.25002315 -.00000088  00000+0  63223-5 0  9992
2 59174  43.0027 354.9244 0001439 266.8207 217.5517 15.27579791 76928
STARLINK-31439          
1 59178U 24045A   25189.82509722 -.00000233  00000+0  10493-5 0  9995
2 59178  42.9995  26.4615 0001399 279.1516  80.9177 15.27575358 12235
STARLINK-31410          
1 59179U 24045B   25190.27459544  .00000420  00000+0  24820-4 0  9998
2 59179  43.0066  27.2732 0002552 271.6004  88.4555 15.27575117 75939
STARLINK-31395          
1 59180U 24045C   25190.23748641 -.00005176  00000+0 -17861-3 0  9996
2 59180  43.0028  27.8564 0001310 262.2388  97.8315 15.27594870 75924
STARLINK-31486          
1 59181U 24045D   25190.54820227 -.00003990  00000+0 -13552-3 0  9997
2 59181  42.9996  22.4296 0001152 267.9814  92.0905 15.27587738 76018
STARLINK-31411          
1 59182U 24045E   25189.85659035 -.00000380  00000+0 -43006-5 0  9996
2 59182  43.0005  29.2980 0001288 265.4332  94.6373 15.27576245 75876
STARLINK-31382          
1 59184U 24045G   25189.98221897  .00001003  00000+0  45971-4 0  9996
2 59184  43.0006  28.5182 0001252 270.6310  89.4398 15.27580806 75899
STARLINK-31394          
1 59185U 24045H   25189.80294163 -.00001264  00000+0 -36432-4 0  9997
2 59185  43.0031  19.3834 0001130 246.8696 113.2036 15.27581142 75986
STARLINK-31403          
1 59186U 24045J   25190.49790495  .00000358  00000+0  22519-4 0  9996
2 59186  43.0016   4.5259 0001179 268.0395  92.0322 15.27574725 76119
STARLINK-31514          
1 59187U 24045K   25190.53872463  .00001573  00000+0  66702-4 0  9990
2 59187  43.0053  25.8173 0001386 293.6595  66.4111 15.27574355 75971
STARLINK-31478          
1 59188U 24045L   25190.52844440 -.00014079  00000+0 -50308-3 0  9995
2 59188  43.0029  25.7326 0001816 284.7282  75.3368 15.27576915 75973
STARLINK-31498          
1 59189U 24045M   25190.55414823 -.00002419  00000+0 -78390-4 0  9994
2 59189  43.0008  25.9257 0001217 272.6697  87.4015 15.27586950 75970
STARLINK-31563          
1 59190U 24045N   25190.51688065  .00000278  00000+0  19622-4 0  9995
2 59190  43.0042  25.6487 0001099 275.5346  84.5381 15.27571594 75975
STARLINK-31551          
1 59191U 24045P   25189.87030337  .00016728  00000+0  52158-3 0  9993
2 59191  43.0009  26.8299 0003819 271.0948  88.9468 15.32971980 75900
STARLINK-31536          
1 59192U 24045Q   25190.53230572  .00001893  00000+0  78324-4 0  9993
2 59192  43.0074  25.7560 0001219 282.6638  77.4077 15.27565002 75972
STARLINK-31548          
1 59193U 24045R   25190.23363908 -.00000219  00000+0  15592-5 0  9992
2 59193  43.0018  27.8245 0001183 280.9217  79.1502 15.27572608 75925
STARLINK-31542          
1 59194U 24045S   25190.24120336 -.00006170  00000+0 -21502-3 0  9999
2 59194  43.0000  27.0226 0001913 269.1193  90.9439 15.27556434 75931
STARLINK-31554          
1 59195U 24045T   25190.54643463  .00000986  00000+0  45363-4 0  9993
2 59195  43.0015  25.8688 0000994 274.1187  85.9551 15.27577590 75972
STARLINK-31558          
1 59196U 24045U   25189.91811876  .00003415  00000+0  13359-3 0  9997
2 59196  43.0001  28.8968 0001115 259.4473 100.6253 15.27570317 75897
STARLINK-31275          
1 59197U 24045V   25189.83103990 -.00001259  00000+0 -36227-4 0  9996
2 59197  43.0001  29.9603 0001170 274.5599  85.5119 15.27574352 75866
STARLINK-31590          
1 59198U 24045W   25189.83875033 -.00001188  00000+0 -33675-4 0  9996
2 59198  43.0007  30.0172 0001262 279.7422  80.3287 15.27572466 75864
STARLINK-31567          
1 59199U 24045X   25190.25919431 -.00000411  00000+0 -54131-5 0  9995
2 59199  43.0023  27.1526 0000430 345.4858  14.5981 15.27572193 75938
STARLINK-31503          
1 59200U 24045Y   25190.52458976  .00000394  00000+0  23827-4 0  9995
2 59200  43.0048  25.7039 0000999 273.1834  86.8903 15.27572668 75979
STARLINK-31603          
1 59201U 24046A   25190.44461067  .00000119  00000+0  16148-4 0  9996
2 59201  53.1583 205.4737 0001192  77.0571 283.0563 15.30193750 75577
STARLINK-31602          
1 59202U 24046B   25190.08110485 -.00000436  00000+0 -26012-5 0  9998
2 59202  53.1593 206.7594 0001434  48.1214 311.9909 15.30196849 75540
STARLINK-31577          
1 59203U 24046C   25190.25002315 -.00021013  00000+0 -69915-3 0  9991
2 59203  53.1566 205.7241 0001284  87.2101 251.9011 15.30207192 75575
STARLINK-31522          
1 59204U 24046D   25190.44249925 -.00000085  00000+0  92400-5 0  9995
2 59204  53.1589 205.4612 0001050  74.4629 285.6488 15.30193183 75570
STARLINK-31586          
1 59205U 24046E   25190.41717587  .00000894  00000+0  42336-4 0  9996
2 59205  53.1595 205.3006 0001187  92.2578 267.8559 15.30179090 75590
STARLINK-31247          
1 59206U 24046F   25190.36558890  .00002278  00000+0  89037-4 0  9998
2 59206  53.1588 205.6886 0001325  83.8366 276.2786 15.30186555 75676
STARLINK-31591          
1 59207U 24046G   25190.42351618  .00001495  00000+0  62603-4 0  9995
2 59207  53.1590 205.3414 0001125  56.7893 303.3215 15.30195788 75583
STARLINK-31576          
1 59208U 24046H   25190.07477253 -.00000318  00000+0  13945-5 0  9991
2 59208  53.1596 206.7180 0001127  93.0384 267.0746 15.30193976 75522
STARLINK-31601          
1 59209U 24046J   25190.19484486  .00000800  00000+0  39153-4 0  9994
2 59209  53.1590 206.0465 0001165  81.9969 278.1163 15.30195702 75607
STARLINK-31520          
1 59210U 24046K   25189.77458054  .00000156  00000+0  17397-4 0  9990
2 59210  53.1597 208.3990 0001088  85.3730 274.7395 15.30188002 75707
STARLINK-31496          
1 59211U 24046L   25190.29193393 -.00004545  00000+0 -10365-3 0  9997
2 59211  53.1576 198.1399 0000797  65.6579 294.4509 15.39637370 75670
STARLINK-31492          
1 59212U 24046M   25190.18546074  .00000206  00000+0  19092-4 0  9999
2 59212  53.1586 206.6917 0001149  76.0043 284.1086 15.30192156 75504
STARLINK-31517          
1 59213U 24046N   25190.34553242  .00000142  00000+0  16932-4 0  9992
2 59213  53.1593 205.5903 0001110  93.1443 266.9685 15.30190698 75566
